IRIDIUM 144             
1 43249U 18030A   25355.73948373  .00000152  00000+0  47155-4 0  9991
2 43249  86.3962   4.5822 0002352  92.6840 267.4625 14.34218832404703
IRIDIUM 149             
1 43250U 18030B   25355.53652095  .00000000  00000+0 -72223-5 0  9992
2 43250  86.3962   4.6363 0002244  91.9940 268.1513 14.34217727404693
IRIDIUM 157             
1 43251U 18030C   25355.48578091  .00000229  00000+0  74658-4 0  9995
2 43251  86.3965   4.7066 0002156  87.6523 272.4919 14.34218946404668
IRIDIUM 140             
1 43252U 18030D   25355.78388267  .00000120  00000+0  35950-4 0  9995
2 43252  86.3966   4.5950 0002302  92.3738 267.7721 14.34217697404765
IRIDIUM 145             
1 43253U 18030E   25355.77119775  .00000222  00000+0  72354-4 0  9993
2 43253  86.3965   4.5728 0002583  91.3506 268.7985 14.34217970404690
IRIDIUM 146             
1 43254U 18030F   25355.75217976  .00000231  00000+0  75292-4 0  9998
2 43254  86.3964   4.5937 0002418  91.0340 269.1133 14.34215757404705
IRIDIUM 148             
1 43255U 18030G   25355.51115075  .00000159  00000+0  49829-4 0  9996
2 43255  86.3966   4.7349 0002204  88.2190 271.9258 14.34218576404702
IRIDIUM 142             
1 43256U 18030H   25355.75851248  .00000060  00000+0  14377-4 0  9993
2 43256  86.3960   4.5270 0002607  91.5034 268.6460 14.34218163404709
